<?xml version="1.0" encoding="UTF-8"?>
<ndm xmlns:xsi="http://www.w3.org/2001/XMLSchema-instance" xsi:noNamespaceSchemaLocation="https://sanaregistry.org/r/ndmxml_unqualified/ndmxml-2.0.0-master-2.0.xsd">
<omm id="CCSDS_OMM_VERS" version="2.0">
<header><CREATION_DATE/><ORIGINATOR/></header><body><segment><metadata><OBJECT_NAME>ORBCOMM FM37 [-]</OBJECT_NAME><OBJECT_ID>2008-031E</OBJECT_ID><CENTER_NAME>EARTH</CENTER_NAME><REF_FRAME>TEME</REF_FRAME><TIME_SYSTEM>UTC</TIME_SYSTEM><MEAN_ELEMENT_THEORY>SGP4</MEAN_ELEMENT_THEORY></metadata><data><meanElements><EPOCH>2024-01-25T19:25:20.649792</EPOCH><MEAN_MOTION>14.75782905</MEAN_MOTION><ECCENTRICITY>.0005557</ECCENTRICITY><INCLINATION>48.4386</INCLINATION><RA_OF_ASC_NODE>232.7303</RA_OF_ASC_NODE><ARG_OF_PERICENTER>356.6677</ARG_OF_PERICENTER><MEAN_ANOMALY>97.3512</MEAN_ANOMALY></meanElements><tleParameters><EPHEMERIS_TYPE>0</EPHEMERIS_TYPE><CLASSIFICATION_TYPE>U</CLASSIFICATION_TYPE><NORAD_CAT_ID>33064</NORAD_CAT_ID><ELEMENT_SET_NO>999</ELEMENT_SET_NO><REV_AT_EPOCH>83886</REV_AT_EPOCH><BSTAR>.42418E-3</BSTAR><MEAN_MOTION_DOT>.2732E-4</MEAN_MOTION_DOT><MEAN_MOTION_DDOT>0</MEAN_MOTION_DDOT></tleParameters></data></segment></body></omm>
<omm id="CCSDS_OMM_VERS" version="2.0">
<header><CREATION_DATE/><ORIGINATOR/></header><body><segment><metadata><OBJECT_NAME>ORBCOMM FM40 [-]</OBJECT_NAME><OBJECT_ID>2008-031F</OBJECT_ID><CENTER_NAME>EARTH</CENTER_NAME><REF_FRAME>TEME</REF_FRAME><TIME_SYSTEM>UTC</TIME_SYSTEM><MEAN_ELEMENT_THEORY>SGP4</MEAN_ELEMENT_THEORY></metadata><data><meanElements><EPOCH>2024-01-25T16:42:59.590656</EPOCH><MEAN_MOTION>14.76966545</MEAN_MOTION><ECCENTRICITY>.0006655</ECCENTRICITY><INCLINATION>48.4408</INCLINATION><RA_OF_ASC_NODE>223.6049</RA_OF_ASC_NODE><ARG_OF_PERICENTER>5.5635</ARG_OF_PERICENTER><MEAN_ANOMALY>109.9089</MEAN_ANOMALY></meanElements><tleParameters><EPHEMERIS_TYPE>0</EPHEMERIS_TYPE><CLASSIFICATION_TYPE>U</CLASSIFICATION_TYPE><NORAD_CAT_ID>33065</NORAD_CAT_ID><ELEMENT_SET_NO>999</ELEMENT_SET_NO><REV_AT_EPOCH>83887</REV_AT_EPOCH><BSTAR>.50972E-3</BSTAR><MEAN_MOTION_DOT>.3423E-4</MEAN_MOTION_DOT><MEAN_MOTION_DDOT>0</MEAN_MOTION_DDOT></tleParameters></data></segment></body></omm>
<omm id="CCSDS_OMM_VERS" version="2.0">
<header><CREATION_DATE/><ORIGINATOR/></header><body><segment><metadata><OBJECT_NAME>VESSELSAT 1 [-]</OBJECT_NAME><OBJECT_ID>2011-058C</OBJECT_ID><CENTER_NAME>EARTH</CENTER_NAME><REF_FRAME>TEME</REF_FRAME><TIME_SYSTEM>UTC</TIME_SYSTEM><MEAN_ELEMENT_THEORY>SGP4</MEAN_ELEMENT_THEORY></metadata><data><meanElements><EPOCH>2024-01-26T03:21:36.936576</EPOCH><MEAN_MOTION>14.11107295</MEAN_MOTION><ECCENTRICITY>.0013641</ECCENTRICITY><INCLINATION>19.9621</INCLINATION><RA_OF_ASC_NODE>287.4739</RA_OF_ASC_NODE><ARG_OF_PERICENTER>359.4665</ARG_OF_PERICENTER><MEAN_ANOMALY>0.5723</MEAN_ANOMALY></meanElements><tleParameters><EPHEMERIS_TYPE>0</EPHEMERIS_TYPE><CLASSIFICATION_TYPE>U</CLASSIFICATION_TYPE><NORAD_CAT_ID>37840</NORAD_CAT_ID><ELEMENT_SET_NO>999</ELEMENT_SET_NO><REV_AT_EPOCH>63468</REV_AT_EPOCH><BSTAR>.10084E-3</BSTAR><MEAN_MOTION_DOT>.449E-5</MEAN_MOTION_DOT><MEAN_MOTION_DDOT>0</MEAN_MOTION_DDOT></tleParameters></data></segment></body></omm>
<omm id="CCSDS_OMM_VERS" version="2.0">
<header><CREATION_DATE/><ORIGINATOR/></header><body><segment><metadata><OBJECT_NAME>ORBCOMM FM109 [+]</OBJECT_NAME><OBJECT_ID>2014-040A</OBJECT_ID><CENTER_NAME>EARTH</CENTER_NAME><REF_FRAME>TEME</REF_FRAME><TIME_SYSTEM>UTC</TIME_SYSTEM><MEAN_ELEMENT_THEORY>SGP4</MEAN_ELEMENT_THEORY></metadata><data><meanElements><EPOCH>2024-01-25T17:19:48.771264</EPOCH><MEAN_MOTION>14.56286650</MEAN_MOTION><ECCENTRICITY>.0001911</ECCENTRICITY><INCLINATION>47.0023</INCLINATION><RA_OF_ASC_NODE>254.0956</RA_OF_ASC_NODE><ARG_OF_PERICENTER>145.2656</ARG_OF_PERICENTER><MEAN_ANOMALY>214.8353</MEAN_ANOMALY></meanElements><tleParameters><EPHEMERIS_TYPE>0</EPHEMERIS_TYPE><CLASSIFICATION_TYPE>U</CLASSIFICATION_TYPE><NORAD_CAT_ID>40086</NORAD_CAT_ID><ELEMENT_SET_NO>999</ELEMENT_SET_NO><REV_AT_EPOCH>50690</REV_AT_EPOCH><BSTAR>.31369E-3</BSTAR><MEAN_MOTION_DOT>.1235E-4</MEAN_MOTION_DOT><MEAN_MOTION_DDOT>0</MEAN_MOTION_DDOT></tleParameters></data></segment></body></omm>
<omm id="CCSDS_OMM_VERS" version="2.0">
<header><CREATION_DATE/><ORIGINATOR/></header><body><segment><metadata><OBJECT_NAME>ORBCOMM FM107 [+]</OBJECT_NAME><OBJECT_ID>2014-040B</OBJECT_ID><CENTER_NAME>EARTH</CENTER_NAME><REF_FRAME>TEME</REF_FRAME><TIME_SYSTEM>UTC</TIME_SYSTEM><MEAN_ELEMENT_THEORY>SGP4</MEAN_ELEMENT_THEORY></metadata><data><meanElements><EPOCH>2024-01-25T18:09:03.698784</EPOCH><MEAN_MOTION>14.56250700</MEAN_MOTION><ECCENTRICITY>.0000922</ECCENTRICITY><INCLINATION>47.0052</INCLINATION><RA_OF_ASC_NODE>254.8834</RA_OF_ASC_NODE><ARG_OF_PERICENTER>104.3808</ARG_OF_PERICENTER><MEAN_ANOMALY>255.7179</MEAN_ANOMALY></meanElements><tleParameters><EPHEMERIS_TYPE>0</EPHEMERIS_TYPE><CLASSIFICATION_TYPE>U</CLASSIFICATION_TYPE><NORAD_CAT_ID>40087</NORAD_CAT_ID><ELEMENT_SET_NO>999</ELEMENT_SET_NO><REV_AT_EPOCH>50698</REV_AT_EPOCH><BSTAR>.30727E-3</BSTAR><MEAN_MOTION_DOT>.1205E-4</MEAN_MOTION_DOT><MEAN_MOTION_DDOT>0</MEAN_MOTION_DDOT></tleParameters></data></segment></body></omm>
<omm id="CCSDS_OMM_VERS" version="2.0">
<header><CREATION_DATE/><ORIGINATOR/></header><body><segment><metadata><OBJECT_NAME>ORBCOMM FM106 [-]</OBJECT_NAME><OBJECT_ID>2014-040C</OBJECT_ID><CENTER_NAME>EARTH</CENTER_NAME><REF_FRAME>TEME</REF_FRAME><TIME_SYSTEM>UTC</TIME_SYSTEM><MEAN_ELEMENT_THEORY>SGP4</MEAN_ELEMENT_THEORY></metadata><data><meanElements><EPOCH>2024-01-25T08:04:32.952000</EPOCH><MEAN_MOTION>14.66513336</MEAN_MOTION><ECCENTRICITY>.0018827</ECCENTRICITY><INCLINATION>47.0601</INCLINATION><RA_OF_ASC_NODE>117.7846</RA_OF_ASC_NODE><ARG_OF_PERICENTER>228.5551</ARG_OF_PERICENTER><MEAN_ANOMALY>131.3722</MEAN_ANOMALY></meanElements><tleParameters><EPHEMERIS_TYPE>0</EPHEMERIS_TYPE><CLASSIFICATION_TYPE>U</CLASSIFICATION_TYPE><NORAD_CAT_ID>40088</NORAD_CAT_ID><ELEMENT_SET_NO>999</ELEMENT_SET_NO><REV_AT_EPOCH>50871</REV_AT_EPOCH><BSTAR>.48293E-3</BSTAR><MEAN_MOTION_DOT>.2527E-4</MEAN_MOTION_DOT><MEAN_MOTION_DDOT>0</MEAN_MOTION_DDOT></tleParameters></data></segment></body></omm>
<omm id="CCSDS_OMM_VERS" version="2.0">
<header><CREATION_DATE/><ORIGINATOR/></header><body><segment><metadata><OBJECT_NAME>ORBCOMM FM111 [-]</OBJECT_NAME><OBJECT_ID>2014-040D</OBJECT_ID><CENTER_NAME>EARTH</CENTER_NAME><REF_FRAME>TEME</REF_FRAME><TIME_SYSTEM>UTC</TIME_SYSTEM><MEAN_ELEMENT_THEORY>SGP4</MEAN_ELEMENT_THEORY></metadata><data><meanElements><EPOCH>2024-01-25T22:33:14.925312</EPOCH><MEAN_MOTION>14.80907322</MEAN_MOTION><ECCENTRICITY>.0034419</ECCENTRICITY><INCLINATION>47.0059</INCLINATION><RA_OF_ASC_NODE>28.2384</RA_OF_ASC_NODE><ARG_OF_PERICENTER>288.9166</ARG_OF_PERICENTER><MEAN_ANOMALY>70.7999</MEAN_ANOMALY></meanElements><tleParameters><EPHEMERIS_TYPE>0</EPHEMERIS_TYPE><CLASSIFICATION_TYPE>U</CLASSIFICATION_TYPE><NORAD_CAT_ID>40089</NORAD_CAT_ID><ELEMENT_SET_NO>999</ELEMENT_SET_NO><REV_AT_EPOCH>51476</REV_AT_EPOCH><BSTAR>.69327E-3</BSTAR><MEAN_MOTION_DOT>.5267E-4</MEAN_MOTION_DOT><MEAN_MOTION_DDOT>0</MEAN_MOTION_DDOT></tleParameters></data></segment></body></omm>
<omm id="CCSDS_OMM_VERS" version="2.0">
<header><CREATION_DATE/><ORIGINATOR/></header><body><segment><metadata><OBJECT_NAME>ORBCOMM FM104 [-]</OBJECT_NAME><OBJECT_ID>2014-040E</OBJECT_ID><CENTER_NAME>EARTH</CENTER_NAME><REF_FRAME>TEME</REF_FRAME><TIME_SYSTEM>UTC</TIME_SYSTEM><MEAN_ELEMENT_THEORY>SGP4</MEAN_ELEMENT_THEORY></metadata><data><meanElements><EPOCH>2024-01-25T19:52:09.100704</EPOCH><MEAN_MOTION>14.54811944</MEAN_MOTION><ECCENTRICITY>.0016929</ECCENTRICITY><INCLINATION>47.0055</INCLINATION><RA_OF_ASC_NODE>282.3087</RA_OF_ASC_NODE><ARG_OF_PERICENTER>42.7536</ARG_OF_PERICENTER><MEAN_ANOMALY>317.4662</MEAN_ANOMALY></meanElements><tleParameters><EPHEMERIS_TYPE>0</EPHEMERIS_TYPE><CLASSIFICATION_TYPE>U</CLASSIFICATION_TYPE><NORAD_CAT_ID>40090</NORAD_CAT_ID><ELEMENT_SET_NO>999</ELEMENT_SET_NO><REV_AT_EPOCH>50655</REV_AT_EPOCH><BSTAR>.32242E-3</BSTAR><MEAN_MOTION_DOT>.123E-4</MEAN_MOTION_DOT><MEAN_MOTION_DDOT>0</MEAN_MOTION_DDOT></tleParameters></data></segment></body></omm>

</ndm>
