ORBCOMM FM37 [-]        
1 33064U 08031E   24025.80926678  .00002732  00000+0  42418-3 0  9992
2 33064  48.4386 232.7303 0005557 356.6677  97.3512 14.75782905838861
ORBCOMM FM40 [-]        
1 33065U 08031F   24025.69652304  .00003423  00000+0  50972-3 0  9994
2 33065  48.4408 223.6049 0006655   5.5635 109.9089 14.76966545838872
VESSELSAT 1 [-]         
1 37840U 11058C   24026.14001084  .00000449  00000+0  10084-3 0  9991
2 37840  19.9621 287.4739 0013641 359.4665   0.5723 14.11107295634680
ORBCOMM FM109 [+]       
1 40086U 14040A   24025.72209226  .00001235  00000+0  31369-3 0  9995
2 40086  47.0023 254.0956 0001911 145.2656 214.8353 14.56286650506907
ORBCOMM FM107 [+]       
1 40087U 14040B   24025.75629281  .00001205  00000+0  30727-3 0  9990
2 40087  47.0052 254.8834 0000922 104.3808 255.7179 14.56250700506984
ORBCOMM FM106 [-]       
1 40088U 14040C   24025.33649250  .00002527  00000+0  48293-3 0  9998
2 40088  47.0601 117.7846 0018827 228.5551 131.3722 14.66513336508716
ORBCOMM FM111 [-]       
1 40089U 14040D   24025.93975608  .00005267  00000+0  69327-3 0  9999
2 40089  47.0059  28.2384 0034419 288.9166  70.7999 14.80907322514766
ORBCOMM FM104 [-]       
1 40090U 14040E   24025.82788311  .00001230  00000+0  32242-3 0  9994
2 40090  47.0055 282.3087 0016929  42.7536 317.4662 14.54811944506551
